{"fetched_at":"2026-03-29T16:36:15Z","count":15609,"tles":[{"name":"STARLINK-4636","line1":"1 53731U 22107AH  26087.60182576  .00009475  00000+0  55503-3 0  9994","line2":"2 53731  53.2140 168.1729 0003282 212.8906 147.1884 15.12449537197453","category":"Starlink"}]}