{
  "norad_id": 53731,
  "name": "STARLINK-4636",
  "history": [
    {
      "epoch": "2026-03-28T14:26:37.745664Z",
      "apogee_km": 530.9992609053561,
      "perigee_km": 526.4655918138933,
      "latitude_deg": 1.1394099026759448e-05,
      "longitude_deg": 125.49571252560332,
      "height_km": 531.5363131881211,
      "semi_major_axis_km": 6906.869426359624,
      "eccentricity": 0.0003282,
      "inclination_deg": 53.214,
      "raan_deg": 168.1729,
      "arg_perigee_deg": 212.8906,
      "mean_anomaly_deg": 147.1884,
      "mean_motion_rev_day": 15.12449537
    }
  ]
}